{
  "type": "FeatureCollection",
  "features": [
    {
      "type": "Feature",
      "properties": {
        "norad_id": 37846,
        "name": "GSAT0101 (GALILEO-PFM)",
        "group": "gnss",
        "lat": -57.027666481371824,
        "lon": -104.52929750151571,
        "alt_km": 23221.750384238767,
        "timestamp": "2025-12-11T13:55:02.406768+00:00",
        "meta_object_name": "GSAT0101 (GALILEO-PFM)",
        "meta_object_id": "2011-060A",
        "meta_epoch": "2025-12-08T19:04:30.018432",
        "meta_mean_motion": 1.70475601,
        "meta_eccentricity": 0.00029509,
        "meta_inclination": 57.0536,
        "meta_ra_of_asc_node": 346.9268,
        "meta_arg_of_pericenter": 313.0699,
        "meta_mean_anomaly": 46.9223,
        "meta_ephemeris_type": 0,
        "meta_classification_type": "U",
        "meta_norad_cat_id": 37846,
        "meta_element_set_no": 999,
        "meta_rev_at_epoch": 8787,
        "meta_bstar": 0,
        "meta_mean_motion_dot": -8.7e-07,
        "meta_mean_motion_ddot": 0,
        "tle_line1": "1 37846U 11060A   25342.79479188 -.00000087  00000+0  00000+0 0  9999",
        "tle_line2": "2 37846  57.0536 346.9268 0002950 313.0699  46.9223  1.70475601 87878"
      },
      "geometry": {
        "type": "Point",
        "coordinates": [
          -104.52929750151571,
          -57.027666481371824
        ]
      }
    },
    {
      "type": "Feature",
      "properties": {
        "norad_id": 37847,
        "name": "GSAT0102 (GALILEO-FM2)",
        "group": "gnss",
        "lat": -36.590772686186014,
        "lon": -41.930588552191224,
        "alt_km": 23211.90571325503,
        "timestamp": "2025-12-11T13:55:02.406780+00:00",
        "meta_object_name": "GSAT0102 (GALILEO-FM2)",
        "meta_object_id": "2011-060B",
        "meta_epoch": "2025-12-10T12:23:27.701376",
        "meta_mean_motion": 1.70475849,
        "meta_eccentricity": 0.00049481,
        "meta_inclination": 57.054,
        "meta_ra_of_asc_node": 346.8806,
        "meta_arg_of_pericenter": 308.752,
        "meta_mean_anomaly": 73.2267,
        "meta_ephemeris_type": 0,
        "meta_classification_type": "U",
        "meta_norad_cat_id": 37847,
        "meta_element_set_no": 999,
        "meta_rev_at_epoch": 8791,
        "meta_bstar": 0,
        "meta_mean_motion_dot": -8.8e-07,
        "meta_mean_motion_ddot": 0,
        "tle_line1": "1 37847U 11060B   25344.51629284 -.00000088  00000+0  00000+0 0  9997",
        "tle_line2": "2 37847  57.0540 346.8806 0004948 308.7520  73.2267  1.70475849 87914"
      },
      "geometry": {
        "type": "Point",
        "coordinates": [
          -41.930588552191224,
          -36.590772686186014
        ]
      }
    },
    {
      "type": "Feature",
      "properties": {
        "norad_id": 37867,
        "name": "COSMOS 2476 (744)",
        "group": "gnss",
        "lat": -50.33296325635106,
        "lon": -66.8852479051613,
        "alt_km": 19074.9879480317,
        "timestamp": "2025-12-11T13:55:02.406801+00:00",
        "meta_object_name": "COSMOS 2476 (744)",
        "meta_object_id": "2011-064A",
        "meta_epoch": "2025-12-10T19:30:14.482368",
        "meta_mean_motion": 2.13101258,
        "meta_eccentricity": 0.00238922,
        "meta_inclination": 65.1614,
        "meta_ra_of_asc_node": 79.2364,
        "meta_arg_of_pericenter": 233.6597,
        "meta_mean_anomaly": 135.7131,
        "meta_ephemeris_type": 0,
        "meta_classification_type": "U",
        "meta_norad_cat_id": 37867,
        "meta_element_set_no": 999,
        "meta_rev_at_epoch": 10975,
        "meta_bstar": 0,
        "meta_mean_motion_dot": -2.4e-07,
        "meta_mean_motion_ddot": 0,
        "tle_line1": "1 37867U 11064A   25344.81266762 -.00000024  00000+0  00000+0 0  9994",
        "tle_line2": "2 37867  65.1614  79.2364 0023892 233.6597 135.7131  2.13101258109752"
      },
      "geometry": {
        "type": "Point",
        "coordinates": [
          -66.8852479051613,
          -50.33296325635106
        ]
      }
    },
    {
      "type": "Feature",
      "properties": {
        "norad_id": 37868,
        "name": "COSMOS 2477 (745)",
        "group": "gnss",
        "lat": 50.97527726216517,
        "lon": 114.07610972004478,
        "alt_km": 19177.644791829192,
        "timestamp": "2025-12-11T13:55:02.406814+00:00",
        "meta_object_name": "COSMOS 2477 (745)",
        "meta_object_id": "2011-064B",
        "meta_epoch": "2025-12-09T06:11:12.657696",
        "meta_mean_motion": 2.13102656,
        "meta_eccentricity": 0.0021072,
        "meta_inclination": 65.167,
        "meta_ra_of_asc_node": 79.367,
        "meta_arg_of_pericenter": 234.1716,
        "meta_mean_anomaly": 203.2692,
        "meta_ephemeris_type": 0,
        "meta_classification_type": "U",
        "meta_norad_cat_id": 37868,
        "meta_element_set_no": 999,
        "meta_rev_at_epoch": 10971,
        "meta_bstar": 0,
        "meta_mean_motion_dot": -1.4e-07,
        "meta_mean_motion_ddot": 0,
        "tle_line1": "1 37868U 11064B   25343.25778539 -.00000014  00000+0  00000+0 0  9991",
        "tle_line2": "2 37868  65.1670  79.3670 0021072 234.1716 203.2692  2.13102656109715"
      },
      "geometry": {
        "type": "Point",
        "coordinates": [
          114.07610972004478,
          50.97527726216517
        ]
      }
    },
    {
      "type": "Feature",
      "properties": {
        "norad_id": 37869,
        "name": "COSMOS 2475 (743)",
        "group": "gnss",
        "lat": 13.638865566216802,
        "lon": 85.75262780973175,
        "alt_km": 19168.51115881338,
        "timestamp": "2025-12-11T13:55:02.406826+00:00",
        "meta_object_name": "COSMOS 2475 (743)",
        "meta_object_id": "2011-064C",
        "meta_epoch": "2025-12-09T06:02:05.700768",
        "meta_mean_motion": 2.13101306,
        "meta_eccentricity": 0.0026081,
        "meta_inclination": 65.1742,
        "meta_ra_of_asc_node": 79.3871,
        "meta_arg_of_pericenter": 248.2695,
        "meta_mean_anomaly": 140.2782,
        "meta_ephemeris_type": 0,
        "meta_classification_type": "U",
        "meta_norad_cat_id": 37869,
        "meta_element_set_no": 999,
        "meta_rev_at_epoch": 10972,
        "meta_bstar": 0,
        "meta_mean_motion_dot": -1.3e-07,
        "meta_mean_motion_ddot": 0,
        "tle_line1": "1 37869U 11064C   25343.25145487 -.00000013  00000+0  00000+0 0  9991",
        "tle_line2": "2 37869  65.1742  79.3871 0026081 248.2695 140.2782  2.13101306109728"
      },
      "geometry": {
        "type": "Point",
        "coordinates": [
          85.75262780973175,
          13.638865566216802
        ]
      }
    },
    {
      "type": "Feature",
      "properties": {
        "norad_id": 37948,
        "name": "BEIDOU-2 IGSO-5 (C10)",
        "group": "gnss",
        "lat": 45.27737610442854,
        "lon": 28.70541685983888,
        "alt_km": 35967.26061061545,
        "timestamp": "2025-12-11T13:55:02.406838+00:00",
        "meta_object_name": "BEIDOU-2 IGSO-5 (C10)",
        "meta_object_id": "2011-073A",
        "meta_epoch": "2025-12-10T19:06:36.578016",
        "meta_mean_motion": 1.00291414,
        "meta_eccentricity": 0.01102762,
        "meta_inclination": 48.0237,
        "meta_ra_of_asc_node": 273.8811,
        "meta_arg_of_pericenter": 222.2535,
        "meta_mean_anomaly": 323.1484,
        "meta_ephemeris_type": 0,
        "meta_classification_type": "U",
        "meta_norad_cat_id": 37948,
        "meta_element_set_no": 999,
        "meta_rev_at_epoch": 5124,
        "meta_bstar": 0,
        "meta_mean_motion_dot": -2.16e-06,
        "meta_mean_motion_ddot": 0,
        "tle_line1": "1 37948U 11073A   25344.79625669 -.00000216  00000+0  00000+0 0  9999",
        "tle_line2": "2 37948  48.0237 273.8811 0110276 222.2535 323.1484  1.00291414 51244"
      },
      "geometry": {
        "type": "Point",
        "coordinates": [
          28.70541685983888,
          45.27737610442854
        ]
      }
    },
    {
      "type": "Feature",
      "properties": {
        "norad_id": 37951,
        "name": "LUCH 5A (SDCM/PRN 140)",
        "group": "gnss",
        "lat": 2.803779465810951,
        "lon": 96.1409550352541,
        "alt_km": 35807.46356468548,
        "timestamp": "2025-12-11T13:55:02.406853+00:00",
        "meta_object_name": "LUCH 5A (SDCM/PRN 140)",
        "meta_object_id": "2011-074B",
        "meta_epoch": "2025-12-10T12:37:31.378368",
        "meta_mean_motion": 1.00274512,
        "meta_eccentricity": 0.00056638,
        "meta_inclination": 8.2746,
        "meta_ra_of_asc_node": 76.6174,
        "meta_arg_of_pericenter": 179.6015,
        "meta_mean_anomaly": 179.7058,
        "meta_ephemeris_type": 0,
        "meta_classification_type": "U",
        "meta_norad_cat_id": 37951,
        "meta_element_set_no": 999,
        "meta_rev_at_epoch": 5115,
        "meta_bstar": 0,
        "meta_mean_motion_dot": -4.5e-07,
        "meta_mean_motion_ddot": 0,
        "tle_line1": "1 37951U 11074B   25344.52605762 -.00000045  00000+0  00000+0 0  9997",
        "tle_line2": "2 37951   8.2746  76.6174 0005663 179.6015 179.7058  1.00274512 51155"
      },
      "geometry": {
        "type": "Point",
        "coordinates": [
          96.1409550352541,
          2.803779465810951
        ]
      }
    }
  ]
}